STARLINK-1904           
1 48389U 21038AN  21354.13942669  .00002280  00000+0  17178-3 0  9999
2 48389  53.0558  57.4056 0000906  72.1359 287.9729 15.06418868 35693
STARLINK-2586           
1 48390U 21038AP  21354.13574004  .00003669  00000+0  26505-3 0  9991
2 48390  53.0560  57.4328 0001380  76.2098 283.9044 15.06400677 35697
STARLINK-2607           
1 48391U 21038AQ  21353.53492701  .00001280  00000+0  10478-3 0  9997
2 48391  53.0564  60.1276 0001215  81.5405 278.5722 15.06408759 36236
STARLINK-2605           
1 48392U 21038AR  21353.53125172  .00003214  00000+0  23456-3 0  9992
2 48392  53.0560  60.1423 0001377  73.9417 286.1724 15.06401124 35600
STARLINK-2602           
1 48393U 21038AS  21354.19102482  .00004458  00000+0  31788-3 0  9993
2 48393  53.0566  57.1885 0001308  78.9346 281.1790 15.06411631 35708
STARLINK-2573           
1 48394U 21038AT  21354.18734200  .00004494  00000+0  32030-3 0  9993
2 48394  53.0554  57.1933 0001299  71.8965 288.2165 15.06408711 35707
STARLINK-2574           
1 48395U 21038AU  21354.17165634  .00001761  00000+0  13710-3 0  9990
2 48395  53.0562  57.2629 0001374  73.0391 287.0748 15.06400386 35705
STARLINK-2575           
1 48396U 21038AV  21353.65288057  .00001470  00000+0  11751-3 0  9998
2 48396  53.0577  59.5889 0001094  80.6983 279.4130 15.06407021 36259
STARLINK-2590           
1 48397U 21038AW  21353.64921331  .00000794  00000+0  72185-4 0  9994
2 48397  53.0569  59.6231 0001291  79.1988 280.9146 15.06392241 36251
STARLINK-2588           
1 48398U 21038AX  21353.71186301  .00001471  00000+0  11764-3 0  9991
2 48398  53.0566  59.3327 0001156  77.4266 282.6852 15.06399662 36260
STARLINK-2587           
1 48399U 21038AY  21353.70818267 -.00000422  00000+0 -94609-5 0  9992
2 48399  53.0556  59.3606 0001164  82.1199 277.9923 15.06396912 36257
STARLINK-2576           
1 48400U 21038AZ  21354.16891965  .00009588  00000+0  66137-3 0  9995
2 48400  53.0561  57.2860 0001220  84.0975 276.0153 15.06418070 35705
STARLINK-2571           
1 48401U 21038BA  21353.54136312  .00004652  00000+0  33084-3 0  9997
2 48401  53.0558  60.1019 0001297  78.5298 281.5837 15.06413869 35016
STARLINK-2560           
1 48402U 21038BB  21353.50176885  .00000941  00000+0  82047-4 0  9994
2 48402  53.0576  60.2860 0001274  85.5972 274.5163 15.06388387 35014
STARLINK-2561           
1 48403U 21038BC  21353.89615146  .00004129  00000+0  29585-3 0  9994
2 48403  53.0557  58.4994 0001204  76.4054 283.7069 15.06411679 35663
STARLINK-2593           
1 48404U 21038BD  21353.69342457 -.00003030  00000+0 -18458-3 0  9994
2 48404  53.0549  59.4265 0001264  76.5616 283.5514 15.06411278 35048
STARLINK-2570           
1 48405U 21038BE  21353.68973903  .00001527  00000+0  12138-3 0  9996
2 48405  53.0575  59.4404 0001264  88.3154 271.7979 15.06403519 35044
STARLINK-2568           
1 48406U 21038BF  21353.88510123  .00000076  00000+0  24000-4 0  9990
2 48406  53.0563  58.5522 0001058  82.2098 277.9011 15.06397210 35667
STARLINK-2595           
1 48407U 21038BG  21353.88140355 -.00003666  00000+0 -22728-3 0  9991
2 48407  53.0550  58.5675 0001150  85.3439 274.7681 15.06414938 35653
STARLINK-2592           
1 48408U 21038BH  21354.14310809  .00001875  00000+0  14474-3 0  9992
2 48408  53.0562  57.3888 0001349  86.6076 273.5067 15.06401914 35690
STARLINK-2596           
1 48409U 21038BJ  21353.90122330  .00007073  00000+0  49312-3 0  9991
2 48409  53.0556  63.4828 0001305  76.4091 283.7043 15.06410990 35592
STARLINK-2563           
1 48410U 21038BK  21354.25001157 -.00025974  00000+0 -17309-2 0  9997
2 48410  53.0561  11.9144 0001467  63.0546   4.6248 15.06405996 36346
STARLINK-2505           
1 48411U 21038BL  21353.91667824  .00040143  00000+0  26996-2 0  9994
2 48411  53.0562   8.4080 0001677  66.1345 260.3239 15.06385850  3602
STARLINK-2581           
1 48412U 21038BM  21353.91667824  .00046270  00000+0  31076-2 0  9997
2 48412  53.0555   8.4087 0001706  61.8671  29.7136 15.06366865  3618
YAOGAN 30 X             
1 48423U 21039A   21354.04710395  .00000348  00000+0  38053-4 0  9997
2 48423  34.9989 195.3338 0006373 273.4908  86.5069 14.90078906 33902
YAOGAN 30 Y             
1 48424U 21039B   21354.02452987  .00000337  00000+0  36965-4 0  9994
2 48424  34.9975 195.1245 0005802   8.6342 351.4462 14.90080712 33908
YAOGAN 30 Z             
1 48425U 21039C   21354.00268863  .00000354  00000+0  38686-4 0  9992
2 48425  34.9968 194.9475 0004457 299.4182  60.6078 14.90039375 33912
TIANQI-12               
1 48426U 21039D   21353.99968047  .00000362  00000+0  38133-4 0  9997
2 48426  35.0056 192.2604 0005114  35.2830 324.8215 14.91570502 33916
STARLINK-2461           
1 48428U 21040A   21354.14817284  .00001817  00000+0  14086-3 0  9991
2 48428  53.0555 262.3717 0002140  68.8713 291.2505 15.06408849 35646
STARLINK-2749           
1 48429U 21040B   21353.91667824 -.00019178  00000+0 -12718-2 0  9999
2 48429  53.0536 233.4127 0002406  71.9098 282.1354 15.06404195 36020
STARLINK-2729           
1 48430U 21040C   21353.88461799  .00001368  00000+0  11075-3 0  9996
2 48430  53.0559 233.5573 0002592  71.6740 288.4531 15.06403902 34748
STARLINK-2700           
1 48431U 21040D   21354.25001157 -.00019350  00000+0 -12830-2 0  9998
2 48431  53.0524 226.9120 0002987  69.3116  40.9208 15.06414964 35310
STARLINK-2680           
1 48432U 21040E   21353.91667824 -.00017145  00000+0 -11350-2 0  9996
2 48432  53.0531 223.4134 0002887  73.1962 335.8545 15.06392436 35495
STARLINK-2699           
1 48433U 21040F   21353.93114506 -.00002178  00000+0 -12723-3 0  9999
2 48433  53.0529 228.3408 0003139  69.5759 290.5567 15.06423808 34819
STARLINK-2692           
1 48434U 21040G   21354.25001157 -.00051121  00000+0 -34345-2 0  9998
2 48434  53.0580 231.9126 0003074  68.2322 174.4825 15.06430816 35257
STARLINK-2633           
1 48435U 21040H   21353.89108592  .00003096  00000+0  23644-3 0  9996
2 48435  53.0549 242.4351 0002272  71.3583 288.7652 15.04780165 34612
STARLINK-2639           
1 48436U 21040J   21353.85192009  .00003027  00000+0  22203-3 0  9993
2 48436  53.0546 258.7023 0002487  64.2278 295.8967 15.06404396 34389
STARLINK-2642           
1 48437U 21040K   21353.83625126  .00002991  00000+0  21961-3 0  9992
2 48437  53.0337 268.8709 0002090  66.2056 293.9152 15.06405446 34244
STARLINK-2640           
1 48438U 21040L   21353.91457967  .00002162  00000+0  16398-3 0  9996
2 48438  53.0553 258.4328 0002225  61.1668 298.9544 15.06408472 34398
STARLINK-2583           
1 48439U 21040M   21354.10993557  .00002301  00000+0  17335-3 0  9996
2 48439  53.0548 257.5590 0002213  67.7298 292.3925 15.06403876 35702
STARLINK-2682           
1 48440U 21040N   21354.10625253  .00001653  00000+0  12985-3 0  9998
2 48440  53.0569 257.5633 0002144  64.8971 295.2240 15.06405619 34870
STARLINK-2702           
1 48441U 21040P   21354.16891980 -.00000419  00000+0 -91920-5 0  9996
2 48441  53.0562 257.2793 0002191  70.2367 289.8858 15.06397293 35716
STARLINK-2644           
1 48442U 21040Q   21354.09888038  .00001269  00000+0  10408-3 0  9991
2 48442  53.0552 257.5862 0002645  66.9841 293.1427 15.06403310 35706
STARLINK-2663           
1 48443U 21040R   21354.16154069  .00001736  00000+0  13542-3 0  9991
2 48443  53.0554 257.3059 0002504  64.9575 295.1673 15.06400055 35710
STARLINK-2645           
1 48444U 21040S   21354.15785517  .00004069  00000+0  29186-3 0  9992
2 48444  53.0548 257.3279 0002480  67.6102 292.5150 15.06411720 35719
STARLINK-2634           
1 48445U 21040T   21353.88878038  .00001397  00000+0  11271-3 0  9990
2 48445  53.0565 258.5402 0002475  65.8534 294.2714 15.06402000 34392
STARLINK-2247           
1 48446U 21040U   21353.88511237  .00001427  00000+0  11470-3 0  9991
2 48446  53.0555 258.5509 0002553  59.8961 300.2281 15.06399146 34397
STARLINK-2269           
1 48447U 21040V   21354.14679317  .00002307  00000+0  17372-3 0  9991
2 48447  53.0556 257.3752 0002417  65.1417 294.9823 15.06410997 34985
STARLINK-2632           
1 48448U 21040W   21354.10531099 -.00000229  00000+0  35757-5 0  9993
2 48448  53.0568 257.5645 0002427  65.7271 294.3971 15.06397281 35694
STARLINK-2655           
1 48449U 21040X   21353.81138097 -.00000076  00000+0  13807-4 0  9993
2 48449  53.0560 258.8853 0002410  66.3373 293.7869 15.06395761 34389
STARLINK-2660           
1 48450U 21040Y   21354.13942488  .00001230  00000+0  10150-3 0  9997
2 48450  53.0557 257.4073 0002448  65.9327 294.1918 15.06399940 35712
STARLINK-2652           
1 48451U 21040Z   21354.13573556  .00000624  00000+0  60833-4 0  9994
2 48451  53.0568 257.4283 0002714  67.1538 292.9738 15.06401013 35713
STARLINK-2703           
1 48452U 21040AA  21354.13848060  .00004898  00000+0  34739-3 0  9992
2 48452  53.0552 257.4141 0002377  66.2355 293.8883 15.06409925 35713
STARLINK-2620           
1 48453U 21040AB  21353.73398264  .00002622  00000+0  19486-3 0  9999
2 48453  53.0542 259.2251 0002305  65.2936 294.8293 15.06403169 34371
STARLINK-2654           
1 48454U 21040AC  21354.12836825  .00001450  00000+0  11624-3 0  9998
2 48454  53.0561 257.4599 0002767  61.5099 298.6169 15.06396755 35714
STARLINK-2497           
1 48455U 21040AD  21354.12467177 -.00004681  00000+0 -29525-3 0  9999
2 48455  53.0544 257.4768 0002001  71.9291 288.1916 15.06436496 35030
STARLINK-2508           
1 48456U 21040AE  21353.85560593  .00003046  00000+0  22328-3 0  9991
2 48456  53.0547 258.6899 0002259  68.4167 291.7062 15.06407822 34380
STARLINK-2698           
1 48458U 21040AG  21353.79338319  .00002449  00000+0  18326-3 0  9994
2 48458  53.0565 263.9667 0002552  62.2874 297.8374 15.06401066 35026
STARLINK-2579           
1 48459U 21040AH  21354.15829265  .00003429  00000+0  24895-3 0  9998
2 48459  53.0552 262.3322 0002380  62.9248 297.1984 15.06407357 34977
